{
    "links": {
        "self": "http://www.neowsapp.com/rest/v1/neo/54016770?api_key=iIulBulltgU6a56xZRHN4H3l9WmuAYTsLGpBGhQ2"
    },
    "id": "54016770",
    "neo_reference_id": "54016770",
    "name": "(2020 HZ6)",
    "designation": "2020 HZ6",
    "nasa_jpl_url": "http://ssd.jpl.nasa.gov/sbdb.cgi?sstr=54016770",
    "absolute_magnitude_h": 25.124,
    "estimated_diameter": {
        "kilometers": {
            "estimated_diameter_min": 0.0251046966,
            "estimated_diameter_max": 0.0561358081
        },
        "meters": {
            "estimated_diameter_min": 25.1046965701,
            "estimated_diameter_max": 56.1358080851
        },
        "miles": {
            "estimated_diameter_min": 0.0155993304,
            "estimated_diameter_max": 0.0348811632
        },
        "feet": {
            "estimated_diameter_min": 82.3644926949,
            "estimated_diameter_max": 184.1726045981
        }
    },
    "is_potentially_hazardous_asteroid": false,
    "close_approach_data": [
        {
            "close_approach_date": "2020-05-05",
            "close_approach_date_full": "2020-May-05 10:32",
            "epoch_date_close_approach": 1588674720000,
            "relative_velocity": {
                "kilometers_per_second": "21.7493107362",
                "kilometers_per_hour": "78297.5186503891",
                "miles_per_hour": "48651.0331858487"
            },
            "miss_distance": {
                "astronomical": "0.026098051",
                "lunar": "10.152141839",
                "kilometers": "3904212.84075137",
                "miles": "2425965.365734106"
            },
            "orbiting_body": "Earth"
        }
    ],
    "orbital_data": {
        "orbit_id": "3",
        "orbit_determination_date": "2020-05-04 06:02:06",
        "first_observation_date": "2020-04-22",
        "last_observation_date": "2020-05-04",
        "data_arc_in_days": 12,
        "observations_used": 19,
        "orbit_uncertainty": "9",
        "minimum_orbit_intersection": ".00541227",
        "jupiter_tisserand_invariant": "2.884",
        "epoch_osculation": "2458964.5",
        "eccentricity": ".7690480399935501",
        "semi_major_axis": "2.635078064211848",
        "inclination": "1.471131721518856",
        "ascending_node_longitude": "20.40812417491075",
        "orbital_period": "1562.387139376322",
        "perihelion_distance": ".6085764436997282",
        "perihelion_argument": "288.2290476110014",
        "aphelion_distance": "4.661579684723968",
        "perihelion_time": "2459019.703702406467",
        "mean_anomaly": "347.2801482004894",
        "mean_motion": ".2304166431782752",
        "equinox": "J2000",
        "orbit_class": {
            "orbit_class_type": "APO",
            "orbit_class_description": "Near-Earth asteroid orbits which cross the Earth’s orbit similar to that of 1862 Apollo",
            "orbit_class_range": "a (semi-major axis) > 1.0 AU; q (perihelion) < 1.017 AU"
        }
    },
    "is_sentry_object": false
}